[
{
  "model": "vendors.location",
  "pk": 1,
  "fields": {
    "address": "1105 Wooded Acres Ste 500",
    "city": "Waco",
    "state": "TX",
    "zipcode": "76710",
    "congressional_district": "17"
  }
},
{
  "model": "vendors.location",
  "pk": 2,
  "fields": {
    "address": "7925 Jones Branch Dr Ste 5400",
    "city": "Mclean",
    "state": "VA",
    "zipcode": "22102",
    "congressional_district": "11"
  }
},
{
  "model": "vendors.location",
  "pk": 3,
  "fields": {
    "address": "1768 Business Center Dr Ste 300",
    "city": "Reston",
    "state": "VA",
    "zipcode": "20190",
    "congressional_district": "11"
  }
},
{
  "model": "vendors.location",
  "pk": 4,
  "fields": {
    "address": "8280 Greensboro Dr Ste 700",
    "city": "Mclean",
    "state": "VA",
    "zipcode": "22102",
    "congressional_district": "11"
  }
},
{
  "model": "vendors.location",
  "pk": 5,
  "fields": {
    "address": "8610 Explorer Dr Ste 305",
    "city": "Colorado Springs",
    "state": "CO",
    "zipcode": "80920",
    "congressional_district": "05"
  }
},
{
  "model": "vendors.location",
  "pk": 6,
  "fields": {
    "address": "7000 Muirkirk Meadows Dr",
    "city": "Beltsville",
    "state": "MD",
    "zipcode": "20705",
    "congressional_district": "05"
  }
},
{
  "model": "vendors.location",
  "pk": 7,
  "fields": {
    "address": "235 E Main St Ste 107",
    "city": "Northville",
    "state": "MI",
    "zipcode": "48167",
    "congressional_district": "11"
  }
},
{
  "model": "vendors.location",
  "pk": 8,
  "fields": {
    "address": "4901 Corporate Dr Nw Ste B",
    "city": "Huntsville",
    "state": "AL",
    "zipcode": "35805",
    "congressional_district": "05"
  }
},
{
  "model": "vendors.location",
  "pk": 9,
  "fields": {
    "address": "14420 Albemarle Pointe Pl Ste 200",
    "city": "Chantilly",
    "state": "VA",
    "zipcode": "20151",
    "congressional_district": "10"
  }
},
{
  "model": "vendors.location",
  "pk": 10,
  "fields": {
    "address": "4900 Seminary Rd Ste 1200",
    "city": "Alexandria",
    "state": "VA",
    "zipcode": "22311",
    "congressional_district": "08"
  }
},
{
  "model": "vendors.location",
  "pk": 11,
  "fields": {
    "address": "4900 Seminary Rd Ste 700",
    "city": "Alexandria",
    "state": "VA",
    "zipcode": "22311",
    "congressional_district": "08"
  }
},
{
  "model": "vendors.location",
  "pk": 12,
  "fields": {
    "address": "8701 Georgia Ave Ste 503",
    "city": "Silver Spring",
    "state": "MD",
    "zipcode": "20910",
    "congressional_district": "08"
  }
},
{
  "model": "vendors.location",
  "pk": 13,
  "fields": {
    "address": "4401 N Fairfax Dr Ste 800",
    "city": "Arlington",
    "state": "VA",
    "zipcode": "22203",
    "congressional_district": "08"
  }
},
{
  "model": "vendors.location",
  "pk": 14,
  "fields": {
    "address": "1500 Wilson Blvd 4Th Fl",
    "city": "Arlington",
    "state": "VA",
    "zipcode": "22209",
    "congressional_district": "08"
  }
},
{
  "model": "vendors.location",
  "pk": 15,
  "fields": {
    "address": "1010 N. Glebe Rd, Ste 510",
    "city": "Arlington",
    "state": "VA",
    "zipcode": "22201",
    "congressional_district": "08"
  }
},
{
  "model": "vendors.location",
  "pk": 16,
  "fields": {
    "address": "7327 Hanover Parkway, Suite A",
    "city": "Greenbelt",
    "state": "MD",
    "zipcode": "20770",
    "congressional_district": "05"
  }
},
{
  "model": "vendors.location",
  "pk": 17,
  "fields": {
    "address": "1621 N Kent Street Suite 1000",
    "city": "Arlington",
    "state": "VA",
    "zipcode": "22209",
    "congressional_district": "08"
  }
},
{
  "model": "vendors.location",
  "pk": 18,
  "fields": {
    "address": "113 S West St",
    "city": "Alexandria",
    "state": "VA",
    "zipcode": "22314",
    "congressional_district": "08"
  }
},
{
  "model": "vendors.location",
  "pk": 19,
  "fields": {
    "address": "8221 Preston Ct",
    "city": "Jessup",
    "state": "MD",
    "zipcode": "20794",
    "congressional_district": "02"
  }
},
{
  "model": "vendors.location",
  "pk": 20,
  "fields": {
    "address": "410 Jan Davis Dr Nw",
    "city": "Huntsville",
    "state": "AL",
    "zipcode": "35806",
    "congressional_district": "05"
  }
},
{
  "model": "vendors.location",
  "pk": 21,
  "fields": {
    "address": "107 Research Dr",
    "city": "Hampton",
    "state": "VA",
    "zipcode": "23666",
    "congressional_district": "02"
  }
},
{
  "model": "vendors.location",
  "pk": 22,
  "fields": {
    "address": "4300 San Mateo Blvd Ne Ste A-220",
    "city": "Albuquerque",
    "state": "NM",
    "zipcode": "87110",
    "congressional_district": "01"
  }
},
{
  "model": "vendors.location",
  "pk": 23,
  "fields": {
    "address": "51 Plum St Ste 240",
    "city": "Beavercreek",
    "state": "OH",
    "zipcode": "45440",
    "congressional_district": "10"
  }
},
{
  "model": "vendors.location",
  "pk": 24,
  "fields": {
    "address": "4905 Research Dr",
    "city": "Huntsville",
    "state": "AL",
    "zipcode": "35805",
    "congressional_district": "05"
  }
},
{
  "model": "vendors.location",
  "pk": 25,
  "fields": {
    "address": "4391 Dayton-Xenia Rd",
    "city": "Beavercreek",
    "state": "OH",
    "zipcode": "45432",
    "congressional_district": "10"
  }
},
{
  "model": "vendors.location",
  "pk": 26,
  "fields": {
    "address": "6728 Odyssey Dr",
    "city": "Huntsville",
    "state": "AL",
    "zipcode": "35806",
    "congressional_district": "05"
  }
},
{
  "model": "vendors.location",
  "pk": 27,
  "fields": {
    "address": "21471 Great Mills Rd",
    "city": "Lexington Park",
    "state": "MD",
    "zipcode": "20653",
    "congressional_district": "05"
  }
},
{
  "model": "vendors.location",
  "pk": 28,
  "fields": {
    "address": "425 3Rd St Sw Ste 700",
    "city": "Washington",
    "state": "DC",
    "zipcode": "20024",
    "congressional_district": "98"
  }
},
{
  "model": "vendors.location",
  "pk": 29,
  "fields": {
    "address": "6909 Metro Pk Dr Ste 500",
    "city": "Alexandria",
    "state": "VA",
    "zipcode": "22310",
    "congressional_district": "08"
  }
},
{
  "model": "vendors.location",
  "pk": 30,
  "fields": {
    "address": "1400 Crystal Dr Suite 1400",
    "city": "Arlington",
    "state": "VA",
    "zipcode": "22202",
    "congressional_district": "08"
  }
},
{
  "model": "vendors.location",
  "pk": 31,
  "fields": {
    "address": "5870 Trinity Parkway Ste 400",
    "city": "Centreville",
    "state": "VA",
    "zipcode": "20120",
    "congressional_district": "11"
  }
},
{
  "model": "vendors.location",
  "pk": 32,
  "fields": {
    "address": "212 Eglin Pkwy Se",
    "city": "Fort Walton Beach",
    "state": "FL",
    "zipcode": "32548",
    "congressional_district": "01"
  }
},
{
  "model": "vendors.location",
  "pk": 33,
  "fields": {
    "address": "360 B Quality Cir Nw Ste 250",
    "city": "Huntsville",
    "state": "AL",
    "zipcode": "35806",
    "congressional_district": "05"
  }
},
{
  "model": "vendors.location",
  "pk": 34,
  "fields": {
    "address": "5030 Bradford Dr Nw Ste 205",
    "city": "Huntsville",
    "state": "AL",
    "zipcode": "35805",
    "congressional_district": "05"
  }
},
{
  "model": "vendors.location",
  "pk": 35,
  "fields": {
    "address": "2010 Corporate Rdg Ste 350",
    "city": "Mclean",
    "state": "VA",
    "zipcode": "22102",
    "congressional_district": "08"
  }
},
{
  "model": "vendors.location",
  "pk": 36,
  "fields": {
    "address": "84 S St",
    "city": "Carlisle",
    "state": "MA",
    "zipcode": "01741",
    "congressional_district": "03"
  }
},
{
  "model": "vendors.location",
  "pk": 37,
  "fields": {
    "address": "8 Neshaminy Interplex Dr Ste 209",
    "city": "Feasterville Trevose",
    "state": "PA",
    "zipcode": "19053",
    "congressional_district": "08"
  }
},
{
  "model": "vendors.location",
  "pk": 38,
  "fields": {
    "address": "7150 Campus Drive, Suite 365",
    "city": "Colorado Springs",
    "state": "CO",
    "zipcode": "80920",
    "congressional_district": "05"
  }
},
{
  "model": "vendors.location",
  "pk": 39,
  "fields": {
    "address": "4017 W Martin Luther King Jr Blvd",
    "city": "Tampa",
    "state": "FL",
    "zipcode": "33614",
    "congressional_district": "14"
  }
},
{
  "model": "vendors.location",
  "pk": 40,
  "fields": {
    "address": "11600 Sunrise Valley Dr Ste 440",
    "city": "Reston",
    "state": "VA",
    "zipcode": "20191",
    "congressional_district": "11"
  }
},
{
  "model": "vendors.location",
  "pk": 41,
  "fields": {
    "address": "4950 Research Dr",
    "city": "Huntsville",
    "state": "AL",
    "zipcode": "35805",
    "congressional_district": "05"
  }
},
{
  "model": "vendors.location",
  "pk": 42,
  "fields": {
    "address": "2509 Walmer Ave",
    "city": "Norfolk",
    "state": "VA",
    "zipcode": "23513",
    "congressional_district": "03"
  }
},
{
  "model": "vendors.location",
  "pk": 43,
  "fields": {
    "address": "5416 A Rivers Ave Ste 105",
    "city": "North Charleston",
    "state": "SC",
    "zipcode": "29406",
    "congressional_district": "06"
  }
},
{
  "model": "vendors.location",
  "pk": 44,
  "fields": {
    "address": "5140 W Goldleaf Cir Ste 400",
    "city": "Los Angeles",
    "state": "CA",
    "zipcode": "90056",
    "congressional_district": "37"
  }
},
{
  "model": "vendors.location",
  "pk": 45,
  "fields": {
    "address": "800 North Glebe Rd #300",
    "city": "Arlington",
    "state": "VA",
    "zipcode": "22203",
    "congressional_district": "08"
  }
},
{
  "model": "vendors.location",
  "pk": 46,
  "fields": {
    "address": "11490 Commerce Park Dr Ste 340",
    "city": "Reston",
    "state": "VA",
    "zipcode": "20191",
    "congressional_district": "11"
  }
},
{
  "model": "vendors.location",
  "pk": 47,
  "fields": {
    "address": "1000 Burr Ridge Pkwy Ste 202",
    "city": "Burr Ridge",
    "state": "IL",
    "zipcode": "60527",
    "congressional_district": "11"
  }
},
{
  "model": "vendors.location",
  "pk": 48,
  "fields": {
    "address": "751 Arbor Way, Ste 180",
    "city": "Blue Bell",
    "state": "PA",
    "zipcode": "19422",
    "congressional_district": "07"
  }
},
{
  "model": "vendors.location",
  "pk": 49,
  "fields": {
    "address": "1600 Commerce St",
    "city": "Boulder",
    "state": "CO",
    "zipcode": "80301",
    "congressional_district": "02"
  }
},
{
  "model": "vendors.location",
  "pk": 50,
  "fields": {
    "address": "505 King Avenue",
    "city": "Columbus",
    "state": "OH",
    "zipcode": "43201",
    "congressional_district": "03"
  }
},
{
  "model": "vendors.location",
  "pk": 51,
  "fields": {
    "address": "6200 Js Mcdonnell Blvd",
    "city": "Saint Louis",
    "state": "MO",
    "zipcode": "63134",
    "congressional_district": "01"
  }
},
{
  "model": "vendors.location",
  "pk": 52,
  "fields": {
    "address": "8283 Greensboro Dr",
    "city": "Mclean",
    "state": "VA",
    "zipcode": "22102",
    "congressional_district": "11"
  }
},
{
  "model": "vendors.location",
  "pk": 53,
  "fields": {
    "address": "11955 Freedom Dr Ste 12000",
    "city": "Reston",
    "state": "VA",
    "zipcode": "20190",
    "congressional_district": "11"
  }
},
{
  "model": "vendors.location",
  "pk": 54,
  "fields": {
    "address": "1919 N Lynn St",
    "city": "Arlington",
    "state": "VA",
    "zipcode": "22209",
    "congressional_district": "08"
  }
},
{
  "model": "vendors.location",
  "pk": 55,
  "fields": {
    "address": "35 New England Business Ctr Dr Ste 200",
    "city": "Andover",
    "state": "MA",
    "zipcode": "01810",
    "congressional_district": "03"
  }
},
{
  "model": "vendors.location",
  "pk": 56,
  "fields": {
    "address": "2750 Prosperity Ave Ste 600",
    "city": "Fairfax",
    "state": "VA",
    "zipcode": "22031",
    "congressional_district": "11"
  }
},
{
  "model": "vendors.location",
  "pk": 57,
  "fields": {
    "address": "3211 Jermantown Rd",
    "city": "Fairfax",
    "state": "VA",
    "zipcode": "22030",
    "congressional_district": "11"
  }
},
{
  "model": "vendors.location",
  "pk": 58,
  "fields": {
    "address": "333 John Carlyle St Ste 500",
    "city": "Alexandria",
    "state": "VA",
    "zipcode": "22314",
    "congressional_district": "08"
  }
},
{
  "model": "vendors.location",
  "pk": 59,
  "fields": {
    "address": "9300 Lee Hwy",
    "city": "Fairfax",
    "state": "VA",
    "zipcode": "22031",
    "congressional_district": "11"
  }
},
{
  "model": "vendors.location",
  "pk": 60,
  "fields": {
    "address": "6710 Rockledge Drive",
    "city": "Bethesda",
    "state": "MD",
    "zipcode": "20817",
    "congressional_district": "08"
  }
},
{
  "model": "vendors.location",
  "pk": 61,
  "fields": {
    "address": "2 Tech Dr",
    "city": "Andover",
    "state": "MA",
    "zipcode": "01810",
    "congressional_district": "03"
  }
},
{
  "model": "vendors.location",
  "pk": 62,
  "fields": {
    "address": "1002 Explorer Blvd",
    "city": "Huntsville",
    "state": "AL",
    "zipcode": "35806",
    "congressional_district": "05"
  }
},
{
  "model": "vendors.location",
  "pk": 63,
  "fields": {
    "address": "12601 Fair Lakes Cir",
    "city": "Fairfax",
    "state": "VA",
    "zipcode": "22033",
    "congressional_district": "11"
  }
},
{
  "model": "vendors.location",
  "pk": 64,
  "fields": {
    "address": "100 Ctc Dr",
    "city": "Johnstown",
    "state": "PA",
    "zipcode": "15904",
    "congressional_district": "12"
  }
},
{
  "model": "vendors.location",
  "pk": 65,
  "fields": {
    "address": "600 William Northern Blvd",
    "city": "Tullahoma",
    "state": "TN",
    "zipcode": "37388",
    "congressional_district": "06"
  }
},
{
  "model": "vendors.location",
  "pk": 66,
  "fields": {
    "address": "14151 Park Meadow Dr Ste 500",
    "city": "Chantilly",
    "state": "VA",
    "zipcode": "20151",
    "congressional_district": "10"
  }
},
{
  "model": "vendors.location",
  "pk": 67,
  "fields": {
    "address": "14370 Newbrook Drive",
    "city": "Chantilly",
    "state": "VA",
    "zipcode": "20151",
    "congressional_district": "10"
  }
},
{
  "model": "vendors.location",
  "pk": 68,
  "fields": {
    "address": "670 Discovery Dr",
    "city": "Huntsville",
    "state": "AL",
    "zipcode": "35806",
    "congressional_district": "05"
  }
},
{
  "model": "vendors.location",
  "pk": 69,
  "fields": {
    "address": "3170 Fairview Park Dr",
    "city": "Falls Church",
    "state": "VA",
    "zipcode": "22042",
    "congressional_district": "11"
  }
},
{
  "model": "vendors.location",
  "pk": 70,
  "fields": {
    "address": "7000 Columbia Gateway Dr Ste 100",
    "city": "Columbia",
    "state": "MD",
    "zipcode": "21046",
    "congressional_district": "03"
  }
},
{
  "model": "vendors.location",
  "pk": 71,
  "fields": {
    "address": "9520 Berger Road Suite 107",
    "city": "Columbia",
    "state": "MD",
    "zipcode": "21046",
    "congressional_district": "03"
  }
},
{
  "model": "vendors.location",
  "pk": 72,
  "fields": {
    "address": "2800 S Shirlington Rd Ste 325",
    "city": "Arlington",
    "state": "VA",
    "zipcode": "22206",
    "congressional_district": "08"
  }
},
{
  "model": "vendors.location",
  "pk": 73,
  "fields": {
    "address": "1751 Pinnacle Drivesuite600",
    "city": "Mc Lean",
    "state": "VA",
    "zipcode": "22102",
    "congressional_district": "11"
  }
},
{
  "model": "vendors.location",
  "pk": 74,
  "fields": {
    "address": "805 15Th St Nw Ste 910",
    "city": "Washington",
    "state": "DC",
    "zipcode": "20005",
    "congressional_district": "98"
  }
},
{
  "model": "vendors.location",
  "pk": 75,
  "fields": {
    "address": "7500 Greenway Center Dr Ste 200",
    "city": "Greenbelt",
    "state": "MD",
    "zipcode": "20770",
    "congressional_district": "05"
  }
},
{
  "model": "vendors.location",
  "pk": 76,
  "fields": {
    "address": "3100 Clarendon Blvd Ste 200",
    "city": "Arlington",
    "state": "VA",
    "zipcode": "22201",
    "congressional_district": "08"
  }
},
{
  "model": "vendors.location",
  "pk": 77,
  "fields": {
    "address": "2001 Jefferson Davis Hwy Ste 401",
    "city": "Arlington",
    "state": "VA",
    "zipcode": "22202",
    "congressional_district": "08"
  }
},
{
  "model": "vendors.location",
  "pk": 78,
  "fields": {
    "address": "9902 Deerfield Pond Dr",
    "city": "Great Falls",
    "state": "VA",
    "zipcode": "22066",
    "congressional_district": "10"
  }
},
{
  "model": "vendors.location",
  "pk": 79,
  "fields": {
    "address": "2696 Linda Marie Dr",
    "city": "Oakton",
    "state": "VA",
    "zipcode": "22124",
    "congressional_district": "10"
  }
},
{
  "model": "vendors.location",
  "pk": 80,
  "fields": {
    "address": "8201 Corporate Dr Ste 580",
    "city": "Landover",
    "state": "MD",
    "zipcode": "20785",
    "congressional_district": "04"
  }
},
{
  "model": "vendors.location",
  "pk": 81,
  "fields": {
    "address": "208 Hay St Ste 2 C",
    "city": "Fayetteville",
    "state": "NC",
    "zipcode": "28301",
    "congressional_district": "09"
  }
},
{
  "model": "vendors.location",
  "pk": 82,
  "fields": {
    "address": "2613 24Th St N",
    "city": "Arlington",
    "state": "VA",
    "zipcode": "22207",
    "congressional_district": "08"
  }
},
{
  "model": "vendors.location",
  "pk": 83,
  "fields": {
    "address": "1714 N Street",
    "city": "Washington",
    "state": "DC",
    "zipcode": "20036",
    "congressional_district": "98"
  }
},
{
  "model": "vendors.location",
  "pk": 84,
  "fields": {
    "address": "777 W Cherokee",
    "city": "Catoosa",
    "state": "OK",
    "zipcode": "74015",
    "congressional_district": "01"
  }
},
{
  "model": "vendors.location",
  "pk": 85,
  "fields": {
    "address": "1501 Wilson Blvd, Suite 1050",
    "city": "Arlington",
    "state": "VA",
    "zipcode": "22209",
    "congressional_district": "08"
  }
},
{
  "model": "vendors.location",
  "pk": 86,
  "fields": {
    "address": "1803 Research Blvd Ste 601B",
    "city": "Rockville",
    "state": "MD",
    "zipcode": "20850",
    "congressional_district": "08"
  }
},
{
  "model": "vendors.location",
  "pk": 87,
  "fields": {
    "address": "2650 Park Tower Dr Ste 100",
    "city": "Vienna",
    "state": "VA",
    "zipcode": "22180",
    "congressional_district": "11"
  }
},
{
  "model": "vendors.location",
  "pk": 88,
  "fields": {
    "address": "2800 S Shirlington Rd Ste 350",
    "city": "Arlington",
    "state": "VA",
    "zipcode": "22206",
    "congressional_district": "08"
  }
},
{
  "model": "vendors.location",
  "pk": 89,
  "fields": {
    "address": "10400 Eaton Pl Ste 450",
    "city": "Fairfax",
    "state": "VA",
    "zipcode": "22030",
    "congressional_district": "11"
  }
},
{
  "model": "vendors.location",
  "pk": 90,
  "fields": {
    "address": "1921 Gallows Rd Ste 1000",
    "city": "Vienna",
    "state": "VA",
    "zipcode": "22182",
    "congressional_district": "11"
  }
},
{
  "model": "vendors.location",
  "pk": 91,
  "fields": {
    "address": "6354 Walker Ln Ste 500",
    "city": "Alexandria",
    "state": "VA",
    "zipcode": "22310",
    "congressional_district": "08"
  }
},
{
  "model": "vendors.location",
  "pk": 92,
  "fields": {
    "address": "12802 Science Dr Ste 300",
    "city": "Orlando",
    "state": "FL",
    "zipcode": "32826",
    "congressional_district": "07"
  }
},
{
  "model": "vendors.location",
  "pk": 93,
  "fields": {
    "address": "100 N Pitt St Ste 240",
    "city": "Alexandria",
    "state": "VA",
    "zipcode": "22314",
    "congressional_district": "08"
  }
},
{
  "model": "vendors.location",
  "pk": 94,
  "fields": {
    "address": "1000 Thomas Jefferson St N W",
    "city": "Washington",
    "state": "DC",
    "zipcode": "20007",
    "congressional_district": "98"
  }
},
{
  "model": "vendors.location",
  "pk": 95,
  "fields": {
    "address": "10643 Mills Ave",
    "city": "Montclair",
    "state": "CA",
    "zipcode": "91763",
    "congressional_district": "35"
  }
},
{
  "model": "vendors.location",
  "pk": 96,
  "fields": {
    "address": "115 Malone Dr",
    "city": "Morgantown",
    "state": "WV",
    "zipcode": "26501",
    "congressional_district": "01"
  }
},
{
  "model": "vendors.location",
  "pk": 97,
  "fields": {
    "address": "1530 S Southwest Loop 323 Ste 106",
    "city": "Tyler",
    "state": "TX",
    "zipcode": "75701",
    "congressional_district": "01"
  }
},
{
  "model": "vendors.location",
  "pk": 98,
  "fields": {
    "address": "12510 Prosperity Dr Ste 180",
    "city": "Silver Spring",
    "state": "MD",
    "zipcode": "20904",
    "congressional_district": "03"
  }
},
{
  "model": "vendors.location",
  "pk": 99,
  "fields": {
    "address": "5726 W Hausman Rd Ste 100",
    "city": "San Antonio",
    "state": "TX",
    "zipcode": "78249",
    "congressional_district": "20"
  }
},
{
  "model": "vendors.location",
  "pk": 100,
  "fields": {
    "address": "5285 Shawnee Rd Ste 510",
    "city": "Alexandria",
    "state": "VA",
    "zipcode": "22312",
    "congressional_district": "08"
  }
},
{
  "model": "vendors.location",
  "pk": 101,
  "fields": {
    "address": "12793 Cogburn Ave",
    "city": "San Antonio",
    "state": "TX",
    "zipcode": "78249",
    "congressional_district": "20"
  }
},
{
  "model": "vendors.location",
  "pk": 102,
  "fields": {
    "address": "455 Springpark Place, Suite 200B",
    "city": "Herndon",
    "state": "VA",
    "zipcode": "20170",
    "congressional_district": "11"
  }
},
{
  "model": "vendors.location",
  "pk": 103,
  "fields": {
    "address": "14510 Sw 284Th St",
    "city": "Homestead",
    "state": "FL",
    "zipcode": "33033",
    "congressional_district": "26"
  }
},
{
  "model": "vendors.location",
  "pk": 104,
  "fields": {
    "address": "7208 Lockport Place",
    "city": "Lorton",
    "state": "VA",
    "zipcode": "22079",
    "congressional_district": "08"
  }
},
{
  "model": "vendors.location",
  "pk": 105,
  "fields": {
    "address": "1224 Royal Dr Ste 100",
    "city": "Conyers",
    "state": "GA",
    "zipcode": "30094",
    "congressional_district": "04"
  }
},
{
  "model": "vendors.location",
  "pk": 106,
  "fields": {
    "address": "120 Hammond Dr",
    "city": "Atlanta",
    "state": "GA",
    "zipcode": "30328",
    "congressional_district": "06"
  }
},
{
  "model": "vendors.location",
  "pk": 107,
  "fields": {
    "address": "300 S Grand Ave Ste 1100",
    "city": "Los Angeles",
    "state": "CA",
    "zipcode": "90071",
    "congressional_district": "34"
  }
},
{
  "model": "vendors.location",
  "pk": 108,
  "fields": {
    "address": "2475 Northwinds Pkwy Ste 200-260",
    "city": "Alpharetta",
    "state": "GA",
    "zipcode": "30009",
    "congressional_district": "06"
  }
},
{
  "model": "vendors.location",
  "pk": 109,
  "fields": {
    "address": "750 9Th St Nw Ste 900",
    "city": "Washington",
    "state": "DC",
    "zipcode": "20001",
    "congressional_district": "98"
  }
},
{
  "model": "vendors.location",
  "pk": 110,
  "fields": {
    "address": "5151 Wisconsin Ave Nw Ste 400",
    "city": "Washington",
    "state": "DC",
    "zipcode": "20016",
    "congressional_district": "98"
  }
},
{
  "model": "vendors.location",
  "pk": 111,
  "fields": {
    "address": "318 Seaboard Lane Ste 106",
    "city": "Franklin",
    "state": "TN",
    "zipcode": "37067",
    "congressional_district": "07"
  }
},
{
  "model": "vendors.location",
  "pk": 112,
  "fields": {
    "address": "7710 Rialto Blvd Suite 200",
    "city": "Austin",
    "state": "TX",
    "zipcode": "78735",
    "congressional_district": "21"
  }
},
{
  "model": "vendors.location",
  "pk": 113,
  "fields": {
    "address": "200 E Randolph Dr",
    "city": "Chicago",
    "state": "IL",
    "zipcode": "60601",
    "congressional_district": "07"
  }
},
{
  "model": "vendors.location",
  "pk": 114,
  "fields": {
    "address": "9891 Brokenland Pkwy Ste 400",
    "city": "Columbia",
    "state": "MD",
    "zipcode": "21046",
    "congressional_district": "03"
  }
},
{
  "model": "vendors.location",
  "pk": 115,
  "fields": {
    "address": "1765 Greensboro Station Place Suite 1400",
    "city": "Tysons",
    "state": "VA",
    "zipcode": "22102",
    "congressional_district": "11"
  }
},
{
  "model": "vendors.location",
  "pk": 116,
  "fields": {
    "address": "2220 Central Ave",
    "city": "Saint Petersburg",
    "state": "FL",
    "zipcode": "33712",
    "congressional_district": "13"
  }
},
{
  "model": "vendors.location",
  "pk": 117,
  "fields": {
    "address": "101 Walton Way",
    "city": "Hopkinsville",
    "state": "KY",
    "zipcode": "42240",
    "congressional_district": "01"
  }
},
{
  "model": "vendors.location",
  "pk": 118,
  "fields": {
    "address": "1105 Wooded Acres",
    "city": "Waco",
    "state": "TX",
    "zipcode": "76710",
    "congressional_district": "17"
  }
},
{
  "model": "vendors.location",
  "pk": 119,
  "fields": {
    "address": "2136 Gallows Rd Ste F",
    "city": "Dunn Loring",
    "state": "VA",
    "zipcode": "22027",
    "congressional_district": "11"
  }
},
{
  "model": "vendors.location",
  "pk": 120,
  "fields": {
    "address": "8229 Boone Blvd Ste 520",
    "city": "Vienna",
    "state": "VA",
    "zipcode": "22182",
    "congressional_district": "11"
  }
},
{
  "model": "vendors.location",
  "pk": 121,
  "fields": {
    "address": "8300 Old Courthouse Road, Suite 210",
    "city": "Vienna",
    "state": "VA",
    "zipcode": "22182",
    "congressional_district": "11"
  }
},
{
  "model": "vendors.location",
  "pk": 122,
  "fields": {
    "address": "2427 Villanova Drive",
    "city": "Vienna",
    "state": "VA",
    "zipcode": "22180",
    "congressional_district": "11"
  }
},
{
  "model": "vendors.location",
  "pk": 123,
  "fields": {
    "address": "1600 Tysons Blvd 8Th Fl",
    "city": "Mclean",
    "state": "VA",
    "zipcode": "22102",
    "congressional_district": "11"
  }
},
{
  "model": "vendors.location",
  "pk": 124,
  "fields": {
    "address": "1600 Tysons Blvd 8Th Fl",
    "city": "Mclean",
    "state": "VA",
    "zipcode": "22102",
    "congressional_district": "08"
  }
},
{
  "model": "vendors.location",
  "pk": 125,
  "fields": {
    "address": "12355 Sunrise Valley Dr Ste 520",
    "city": "Reston",
    "state": "VA",
    "zipcode": "20191",
    "congressional_district": "11"
  }
},
{
  "model": "vendors.location",
  "pk": 126,
  "fields": {
    "address": "1725 Duke St",
    "city": "Alexandria",
    "state": "VA",
    "zipcode": "22314",
    "congressional_district": "08"
  }
},
{
  "model": "vendors.location",
  "pk": 127,
  "fields": {
    "address": "12709 Mill Glen Ct",
    "city": "Clifton",
    "state": "VA",
    "zipcode": "20124",
    "congressional_district": "11"
  }
},
{
  "model": "vendors.location",
  "pk": 128,
  "fields": {
    "address": "12355 Sunrise Valley Dr Ste 520",
    "city": "Reston",
    "state": "VA",
    "zipcode": "20191",
    "congressional_district": "08"
  }
},
{
  "model": "vendors.location",
  "pk": 129,
  "fields": {
    "address": "7307 Laketree Dr",
    "city": "Fairfax Station",
    "state": "VA",
    "zipcode": "22039",
    "congressional_district": "10"
  }
},
{
  "model": "vendors.location",
  "pk": 130,
  "fields": {
    "address": "7307 Laketree Dr",
    "city": "Fairfax Station",
    "state": "VA",
    "zipcode": "22039",
    "congressional_district": "11"
  }
},
{
  "model": "vendors.location",
  "pk": 131,
  "fields": {
    "address": "1934 Old Gallows Rd Ste 502",
    "city": "Vienna",
    "state": "VA",
    "zipcode": "22182",
    "congressional_district": "11"
  }
},
{
  "model": "vendors.location",
  "pk": 132,
  "fields": {
    "address": "8280 Greensboro Dr Ste 140",
    "city": "Mclean",
    "state": "VA",
    "zipcode": "22102",
    "congressional_district": "11"
  }
},
{
  "model": "vendors.location",
  "pk": 133,
  "fields": {
    "address": "7604 Amberly Dr",
    "city": "Colorado Springs",
    "state": "CO",
    "zipcode": "80923",
    "congressional_district": "05"
  }
},
{
  "model": "vendors.location",
  "pk": 134,
  "fields": {
    "address": "235 East Main Street, Suite 107",
    "city": "Northville",
    "state": "MI",
    "zipcode": "48167",
    "congressional_district": "11"
  }
},
{
  "model": "vendors.location",
  "pk": 135,
  "fields": {
    "address": "37680 Hills Tech Drive",
    "city": "Farmington Hil",
    "state": "MI",
    "zipcode": "48331",
    "congressional_district": "09"
  }
},
{
  "model": "vendors.location",
  "pk": 136,
  "fields": {
    "address": "37610 Hills Tech Dr",
    "city": "Farmington Hills",
    "state": "MI",
    "zipcode": "48331",
    "congressional_district": "09"
  }
},
{
  "model": "vendors.location",
  "pk": 137,
  "fields": {
    "address": "1900 Golf Road Suite F",
    "city": "Huntsville",
    "state": "AL",
    "zipcode": "35802",
    "congressional_district": "05"
  }
},
{
  "model": "vendors.location",
  "pk": 138,
  "fields": {
    "address": "15163 Dahlgren Rd Ste 103",
    "city": "King George",
    "state": "VA",
    "zipcode": "22485",
    "congressional_district": "01"
  }
},
{
  "model": "vendors.location",
  "pk": 139,
  "fields": {
    "address": "3201 C St Ste 801",
    "city": "Anchorage",
    "state": "AK",
    "zipcode": "99503",
    "congressional_district": "00"
  }
},
{
  "model": "vendors.location",
  "pk": 140,
  "fields": {
    "address": "4900 Seminary Rd Ste 570",
    "city": "Alexandria",
    "state": "VA",
    "zipcode": "22311",
    "congressional_district": "08"
  }
},
{
  "model": "vendors.location",
  "pk": 141,
  "fields": {
    "address": "4900 Seminary Road",
    "city": "Alexandria",
    "state": "VA",
    "zipcode": "22311",
    "congressional_district": "08"
  }
},
{
  "model": "vendors.location",
  "pk": 142,
  "fields": {
    "address": "8706 Margaret Lane",
    "city": "Annandale",
    "state": "VA",
    "zipcode": "22003",
    "congressional_district": "11"
  }
},
{
  "model": "vendors.location",
  "pk": 143,
  "fields": {
    "address": "8701 Georgia Ave Ste 503",
    "city": "Silver Spring",
    "state": "MD",
    "zipcode": "20910",
    "congressional_district": "04"
  }
},
{
  "model": "vendors.location",
  "pk": 144,
  "fields": {
    "address": "40723 Cool Valley Cir",
    "city": "Aldie",
    "state": "VA",
    "zipcode": "20105",
    "congressional_district": "10"
  }
},
{
  "model": "vendors.location",
  "pk": 145,
  "fields": {
    "address": "4245 North Fairfax Dr Ste 800",
    "city": "Arlington",
    "state": "VA",
    "zipcode": "22203",
    "congressional_district": "08"
  }
},
{
  "model": "vendors.location",
  "pk": 146,
  "fields": {
    "address": "4300 Wilson Blvd Ste 220",
    "city": "Arlington",
    "state": "VA",
    "zipcode": "22203",
    "congressional_district": "08"
  }
},
{
  "model": "vendors.location",
  "pk": 147,
  "fields": {
    "address": "1101 Wilson Blvd Ste 2210",
    "city": "Arlington",
    "state": "VA",
    "zipcode": "22209",
    "congressional_district": "08"
  }
},
{
  "model": "vendors.location",
  "pk": 148,
  "fields": {
    "address": "1101 Wilson Blvd Ste 1810",
    "city": "Arlington",
    "state": "VA",
    "zipcode": "22209",
    "congressional_district": "08"
  }
},
{
  "model": "vendors.location",
  "pk": 149,
  "fields": {
    "address": "4401 Wilson Blvd Ste 820",
    "city": "Arlington",
    "state": "VA",
    "zipcode": "22203",
    "congressional_district": "08"
  }
},
{
  "model": "vendors.location",
  "pk": 150,
  "fields": {
    "address": "4040 N Fairfax Dr Ste 1001",
    "city": "Arlington",
    "state": "VA",
    "zipcode": "22203",
    "congressional_district": "08"
  }
},
{
  "model": "vendors.location",
  "pk": 151,
  "fields": {
    "address": "1629 K St Nw Ste 300",
    "city": "Washington",
    "state": "DC",
    "zipcode": "20006",
    "congressional_district": "00"
  }
},
{
  "model": "vendors.location",
  "pk": 152,
  "fields": {
    "address": "1555 Wilson Blvd, Suite 600",
    "city": "Arlington",
    "state": "VA",
    "zipcode": "22209",
    "congressional_district": "08"
  }
},
{
  "model": "vendors.location",
  "pk": 153,
  "fields": {
    "address": "7675 Graysons Mill Ln",
    "city": "Lorton",
    "state": "VA",
    "zipcode": "22079",
    "congressional_district": "11"
  }
},
{
  "model": "vendors.location",
  "pk": 154,
  "fields": {
    "address": "2324 Lakeshire Dr",
    "city": "Alexandria",
    "state": "VA",
    "zipcode": "22308",
    "congressional_district": "11"
  }
},
{
  "model": "vendors.location",
  "pk": 155,
  "fields": {
    "address": "2324 Lakeshire Dr",
    "city": "Alexandria",
    "state": "VA",
    "zipcode": "22308",
    "congressional_district": "08"
  }
},
{
  "model": "vendors.location",
  "pk": 156,
  "fields": {
    "address": "8221 Preston Ct",
    "city": "Jessup",
    "state": "MD",
    "zipcode": "20794",
    "congressional_district": "07"
  }
},
{
  "model": "vendors.location",
  "pk": 157,
  "fields": {
    "address": "6703 Odyssey Drive",
    "city": "Huntsville",
    "state": "AL",
    "zipcode": "35806",
    "congressional_district": "05"
  }
},
{
  "model": "vendors.location",
  "pk": 158,
  "fields": {
    "address": "631 Discovery Drive",
    "city": "Huntsville",
    "state": "AL",
    "zipcode": "35806",
    "congressional_district": "05"
  }
},
{
  "model": "vendors.location",
  "pk": 159,
  "fields": {
    "address": "107 Research Dr",
    "city": "Hampton",
    "state": "VA",
    "zipcode": "23666",
    "congressional_district": "01"
  }
},
{
  "model": "vendors.location",
  "pk": 160,
  "fields": {
    "address": "107 Research Drive",
    "city": "Hampton",
    "state": "VA",
    "zipcode": "23666",
    "congressional_district": "01"
  }
},
{
  "model": "vendors.location",
  "pk": 161,
  "fields": {
    "address": "4300 San Mateo Blvd Ne Ste A220",
    "city": "Albuquerque",
    "state": "NM",
    "zipcode": "87110",
    "congressional_district": "01"
  }
},
{
  "model": "vendors.location",
  "pk": 162,
  "fields": {
    "address": "51 Plum St Ste 240",
    "city": "Beavercreek",
    "state": "OH",
    "zipcode": "45440",
    "congressional_district": "07"
  }
},
{
  "model": "vendors.location",
  "pk": 163,
  "fields": {
    "address": "7067 Old Madison Pike Ste 170",
    "city": "Huntsville",
    "state": "AL",
    "zipcode": "35806",
    "congressional_district": "05"
  }
},
{
  "model": "vendors.location",
  "pk": 164,
  "fields": {
    "address": "18089 Edison Avenue",
    "city": "Chesterfield",
    "state": "MO",
    "zipcode": "63005",
    "congressional_district": "02"
  }
},
{
  "model": "vendors.location",
  "pk": 165,
  "fields": {
    "address": "18089 Edison Ave",
    "city": "Chesterfield",
    "state": "MO",
    "zipcode": "63005",
    "congressional_district": "02"
  }
},
{
  "model": "vendors.location",
  "pk": 166,
  "fields": {
    "address": "3572 Dayton-Xenia Rd Ste 210",
    "city": "Beavercreek",
    "state": "OH",
    "zipcode": "45432",
    "congressional_district": "07"
  }
},
{
  "model": "vendors.location",
  "pk": 167,
  "fields": {
    "address": "3572 Dayton Xenia Rd Ste 210",
    "city": "Beavercreek",
    "state": "OH",
    "zipcode": "45432",
    "congressional_district": "10"
  }
},
{
  "model": "vendors.location",
  "pk": 168,
  "fields": {
    "address": "3572 Dayton Xenia Rd Ste 210",
    "city": "Beavercreek",
    "state": "OH",
    "zipcode": "45432",
    "congressional_district": "07"
  }
},
{
  "model": "vendors.location",
  "pk": 169,
  "fields": {
    "address": "3572 Dayton-Xenia Rd",
    "city": "Beavercreek",
    "state": "OH",
    "zipcode": "45432",
    "congressional_district": "07"
  }
},
{
  "model": "vendors.location",
  "pk": 170,
  "fields": {
    "address": "6726 Odyssey Dr Nw",
    "city": "Huntsville",
    "state": "AL",
    "zipcode": "35806",
    "congressional_district": "05"
  }
},
{
  "model": "vendors.location",
  "pk": 171,
  "fields": {
    "address": "6726 Odyssey Dr",
    "city": "Huntsville",
    "state": "AL",
    "zipcode": "35806",
    "congressional_district": "05"
  }
},
{
  "model": "vendors.location",
  "pk": 172,
  "fields": {
    "address": "48015 Pine Hill Run Rd",
    "city": "Lexington Park",
    "state": "MD",
    "zipcode": "20653",
    "congressional_district": "05"
  }
},
{
  "model": "vendors.location",
  "pk": 173,
  "fields": {
    "address": "400 Virginia Ave Sw Suite",
    "city": "Washington",
    "state": "DC",
    "zipcode": "20024",
    "congressional_district": "00"
  }
},
{
  "model": "vendors.location",
  "pk": 174,
  "fields": {
    "address": "400 Virginia Ave Sw",
    "city": "Washington",
    "state": "DC",
    "zipcode": "20024",
    "congressional_district": "00"
  }
},
{
  "model": "vendors.location",
  "pk": 175,
  "fields": {
    "address": "400 Virginia Ave Sw Ste 710",
    "city": "Washington",
    "state": "DC",
    "zipcode": "20024",
    "congressional_district": "00"
  }
},
{
  "model": "vendors.location",
  "pk": 176,
  "fields": {
    "address": "6909 Metro Park Dr Ste 500",
    "city": "Alexandria",
    "state": "VA",
    "zipcode": "22310",
    "congressional_district": "08"
  }
},
{
  "model": "vendors.location",
  "pk": 177,
  "fields": {
    "address": "1330 Braddock Pl Ste 700",
    "city": "Alexandria",
    "state": "VA",
    "zipcode": "22314",
    "congressional_district": "08"
  }
},
{
  "model": "vendors.location",
  "pk": 178,
  "fields": {
    "address": "1330 Braddock Place",
    "city": "Alexandria",
    "state": "VA",
    "zipcode": "22314",
    "congressional_district": "08"
  }
},
{
  "model": "vendors.location",
  "pk": 179,
  "fields": {
    "address": "1235 S Clark St",
    "city": "Arlington",
    "state": "VA",
    "zipcode": "22202",
    "congressional_district": "08"
  }
},
{
  "model": "vendors.location",
  "pk": 180,
  "fields": {
    "address": "1235 S Clark St Ste 400",
    "city": "Arlington",
    "state": "VA",
    "zipcode": "22202",
    "congressional_district": "08"
  }
},
{
  "model": "vendors.location",
  "pk": 181,
  "fields": {
    "address": "7403 Gateway Ct",
    "city": "Manassas",
    "state": "VA",
    "zipcode": "20109",
    "congressional_district": "10"
  }
},
{
  "model": "vendors.location",
  "pk": 182,
  "fields": {
    "address": "119 West Intendencia St Ste A",
    "city": "Pensacola",
    "state": "FL",
    "zipcode": "32502",
    "congressional_district": "01"
  }
},
{
  "model": "vendors.location",
  "pk": 183,
  "fields": {
    "address": "360 B Quality Cir Nw",
    "city": "Huntsville",
    "state": "AL",
    "zipcode": "35806",
    "congressional_district": "05"
  }
},
{
  "model": "vendors.location",
  "pk": 184,
  "fields": {
    "address": "1002 Explorer Blvd Nw",
    "city": "Huntsville",
    "state": "AL",
    "zipcode": "35806",
    "congressional_district": "05"
  }
},
{
  "model": "vendors.location",
  "pk": 185,
  "fields": {
    "address": "5030 Bradford Dr Bldg 2 Ste 205",
    "city": "Huntsville",
    "state": "AL",
    "zipcode": "35805",
    "congressional_district": "05"
  }
},
{
  "model": "vendors.location",
  "pk": 186,
  "fields": {
    "address": "6767 Old Madison Pike Ste 240",
    "city": "Huntsville",
    "state": "AL",
    "zipcode": "35806",
    "congressional_district": "05"
  }
},
{
  "model": "vendors.location",
  "pk": 187,
  "fields": {
    "address": "6767 Old Madison Pike Ste",
    "city": "Huntsville",
    "state": "AL",
    "zipcode": "35806",
    "congressional_district": "05"
  }
},
{
  "model": "vendors.location",
  "pk": 188,
  "fields": {
    "address": "2000 Corporate Rdg",
    "city": "Mclean",
    "state": "VA",
    "zipcode": "22102",
    "congressional_district": "08"
  }
},
{
  "model": "vendors.location",
  "pk": 189,
  "fields": {
    "address": "2010 Corporate Ridge Ste 350",
    "city": "Mc Lean",
    "state": "VA",
    "zipcode": "22102",
    "congressional_district": "08"
  }
},
{
  "model": "vendors.location",
  "pk": 190,
  "fields": {
    "address": "2010 Corporate Ridge Ste 350",
    "city": "Mc Lean",
    "state": "VA",
    "zipcode": "22102",
    "congressional_district": "10"
  }
},
{
  "model": "vendors.location",
  "pk": 191,
  "fields": {
    "address": "84 South St",
    "city": "Carlisle",
    "state": "MA",
    "zipcode": "01741",
    "congressional_district": "05"
  }
},
{
  "model": "vendors.location",
  "pk": 192,
  "fields": {
    "address": "84 South Street",
    "city": "Carlisle",
    "state": "MA",
    "zipcode": "01741",
    "congressional_district": "05"
  }
},
{
  "model": "vendors.location",
  "pk": 193,
  "fields": {
    "address": "84 S St",
    "city": "Carlisle",
    "state": "MA",
    "zipcode": "01741",
    "congressional_district": "05"
  }
},
{
  "model": "vendors.location",
  "pk": 194,
  "fields": {
    "address": "4300 Haddonfield Road",
    "city": "Pennsauken",
    "state": "NJ",
    "zipcode": "08109",
    "congressional_district": "01"
  }
},
{
  "model": "vendors.location",
  "pk": 195,
  "fields": {
    "address": "4300 Haddonfield Rd",
    "city": "Pennsauken",
    "state": "NJ",
    "zipcode": "08109",
    "congressional_district": "01"
  }
},
{
  "model": "vendors.location",
  "pk": 196,
  "fields": {
    "address": "565 Space Center Drive, Suite 330",
    "city": "Colorado Springs",
    "state": "CO",
    "zipcode": "80915",
    "congressional_district": "05"
  }
},
{
  "model": "vendors.location",
  "pk": 197,
  "fields": {
    "address": "1625 S Murray Blvd",
    "city": "Colorado Springs",
    "state": "CO",
    "zipcode": "80916",
    "congressional_district": "05"
  }
},
{
  "model": "vendors.location",
  "pk": 198,
  "fields": {
    "address": "8 South Nevada Ave, # 404",
    "city": "Colorado Springs",
    "state": "CO",
    "zipcode": "80903",
    "congressional_district": "05"
  }
},
{
  "model": "vendors.location",
  "pk": 199,
  "fields": {
    "address": "2202 N West Shore Blvd",
    "city": "Tampa",
    "state": "FL",
    "zipcode": "33607",
    "congressional_district": "11"
  }
},
{
  "model": "vendors.location",
  "pk": 200,
  "fields": {
    "address": "4017 West Martin Luther King Jr Blvd",
    "city": "Tampa",
    "state": "FL",
    "zipcode": "33614",
    "congressional_district": "11"
  }
},
{
  "model": "vendors.location",
  "pk": 201,
  "fields": {
    "address": "4017 West Martin Luther King Jr Blvd",
    "city": "Tampa",
    "state": "FL",
    "zipcode": "33614",
    "congressional_district": "14"
  }
},
{
  "model": "vendors.location",
  "pk": 202,
  "fields": {
    "address": "8550 Lee Highway Suite 450",
    "city": "Fairfax",
    "state": "VA",
    "zipcode": "22031",
    "congressional_district": "11"
  }
},
{
  "model": "vendors.location",
  "pk": 203,
  "fields": {
    "address": "11600 Sunrise Valley Dr Suite 320",
    "city": "Reston",
    "state": "VA",
    "zipcode": "20191",
    "congressional_district": "11"
  }
},
{
  "model": "vendors.location",
  "pk": 204,
  "fields": {
    "address": "11250 Waples Mill Rd Ste 430",
    "city": "Fairfax",
    "state": "VA",
    "zipcode": "22030",
    "congressional_district": "11"
  }
},
{
  "model": "vendors.location",
  "pk": 205,
  "fields": {
    "address": "4950 Research Dr Nw",
    "city": "Huntsville",
    "state": "AL",
    "zipcode": "35805",
    "congressional_district": "05"
  }
},
{
  "model": "vendors.location",
  "pk": 206,
  "fields": {
    "address": "4661 Haygood Rd Ste 102",
    "city": "Virginia Beach",
    "state": "VA",
    "zipcode": "23455",
    "congressional_district": "02"
  }
},
{
  "model": "vendors.location",
  "pk": 207,
  "fields": {
    "address": "5416A Rivers Ave Ste 105",
    "city": "North Charleston",
    "state": "SC",
    "zipcode": "29406",
    "congressional_district": "06"
  }
},
{
  "model": "vendors.location",
  "pk": 208,
  "fields": {
    "address": "5416-A Rivers Ave",
    "city": "North Charlest",
    "state": "SC",
    "zipcode": "29406",
    "congressional_district": "01"
  }
},
{
  "model": "vendors.location",
  "pk": 209,
  "fields": {
    "address": "5140 W Goldleaf Cir Ste 400",
    "city": "Los Angeles",
    "state": "CA",
    "zipcode": "90056",
    "congressional_district": "33"
  }
},
{
  "model": "vendors.location",
  "pk": 210,
  "fields": {
    "address": "6701 Center Drive West, Su",
    "city": "Los Angeles",
    "state": "CA",
    "zipcode": "90045",
    "congressional_district": "35"
  }
},
{
  "model": "vendors.location",
  "pk": 211,
  "fields": {
    "address": "11951 Freedom Dr Ste 1000",
    "city": "Reston",
    "state": "VA",
    "zipcode": "20190",
    "congressional_district": "08"
  }
},
{
  "model": "vendors.location",
  "pk": 212,
  "fields": {
    "address": "11951 Freedom Dr",
    "city": "Reston",
    "state": "VA",
    "zipcode": "20190",
    "congressional_district": "11"
  }
},
{
  "model": "vendors.location",
  "pk": 213,
  "fields": {
    "address": "11951 Freedom Dr Ste 1000",
    "city": "Reston",
    "state": "VA",
    "zipcode": "20190",
    "congressional_district": "11"
  }
},
{
  "model": "vendors.location",
  "pk": 214,
  "fields": {
    "address": "11490 Commerce Park Dr Ste 340",
    "city": "Reston",
    "state": "VA",
    "zipcode": "20191",
    "congressional_district": "08"
  }
},
{
  "model": "vendors.location",
  "pk": 215,
  "fields": {
    "address": "2388 Dakota Lakes Dr",
    "city": "Herndon",
    "state": "VA",
    "zipcode": "20171",
    "congressional_district": "10"
  }
},
{
  "model": "vendors.location",
  "pk": 216,
  "fields": {
    "address": "950 Herndon Parkway, Suite 110",
    "city": "Herndon",
    "state": "VA",
    "zipcode": "20170",
    "congressional_district": "11"
  }
},
{
  "model": "vendors.location",
  "pk": 217,
  "fields": {
    "address": "950 Herndon Parkway, Suite 110",
    "city": "Herndon",
    "state": "VA",
    "zipcode": "20170",
    "congressional_district": "10"
  }
},
{
  "model": "vendors.location",
  "pk": 218,
  "fields": {
    "address": "One Plymouth Meeting Ste 850",
    "city": "Plymouth Meeting",
    "state": "PA",
    "zipcode": "19462",
    "congressional_district": "06"
  }
},
{
  "model": "vendors.location",
  "pk": 219,
  "fields": {
    "address": "502 W Germantown Pike Ste 850",
    "city": "Plymouth Meeting",
    "state": "PA",
    "zipcode": "19462",
    "congressional_district": "06"
  }
},
{
  "model": "vendors.location",
  "pk": 220,
  "fields": {
    "address": "One Plymouth Meeting Ste 8",
    "city": "Plymouth Meeti",
    "state": "PA",
    "zipcode": "19462",
    "congressional_district": "13"
  }
},
{
  "model": "vendors.location",
  "pk": 221,
  "fields": {
    "address": "One Plymouth Meeting",
    "city": "Plymouth Meeti",
    "state": "PA",
    "zipcode": "19462",
    "congressional_district": "13"
  }
},
{
  "model": "vendors.location",
  "pk": 222,
  "fields": {
    "address": "1600 Commerce Street",
    "city": "Boulder",
    "state": "CO",
    "zipcode": "80306",
    "congressional_district": "02"
  }
},
{
  "model": "vendors.location",
  "pk": 223,
  "fields": {
    "address": "505 King Avenue",
    "city": "Columbus",
    "state": "OH",
    "zipcode": "43201",
    "congressional_district": "15"
  }
},
{
  "model": "vendors.location",
  "pk": 224,
  "fields": {
    "address": "505 King Ave",
    "city": "Columbus",
    "state": "OH",
    "zipcode": "43201",
    "congressional_district": "15"
  }
},
{
  "model": "vendors.location",
  "pk": 225,
  "fields": {
    "address": "6001 S Air Depot Blvd",
    "city": "Oklahoma City",
    "state": "OK",
    "zipcode": "73135",
    "congressional_district": "04"
  }
},
{
  "model": "vendors.location",
  "pk": 226,
  "fields": {
    "address": "8120 Mid America Blvd Ste 300",
    "city": "Oklahoma City",
    "state": "OK",
    "zipcode": "73135",
    "congressional_district": "04"
  }
},
{
  "model": "vendors.location",
  "pk": 227,
  "fields": {
    "address": "8283 Greensboro Dr # 700",
    "city": "Mc Lean",
    "state": "VA",
    "zipcode": "22102",
    "congressional_district": "08"
  }
},
{
  "model": "vendors.location",
  "pk": 228,
  "fields": {
    "address": "8283 Greensboro Dr",
    "city": "Mclean",
    "state": "VA",
    "zipcode": "22102",
    "congressional_district": "08"
  }
},
{
  "model": "vendors.location",
  "pk": 229,
  "fields": {
    "address": "8283 Greensboro Drive",
    "city": "Mclean",
    "state": "VA",
    "zipcode": "22102",
    "congressional_district": "08"
  }
},
{
  "model": "vendors.location",
  "pk": 230,
  "fields": {
    "address": "11955 Freedom Dr Ste 12000",
    "city": "Reston",
    "state": "VA",
    "zipcode": "20190",
    "congressional_district": "08"
  }
},
{
  "model": "vendors.location",
  "pk": 231,
  "fields": {
    "address": "11955 Freedom Dr Ste 10000",
    "city": "Reston",
    "state": "VA",
    "zipcode": "20190",
    "congressional_district": "08"
  }
},
{
  "model": "vendors.location",
  "pk": 232,
  "fields": {
    "address": "11955 Freedom Dr Ste 10000",
    "city": "Reston",
    "state": "VA",
    "zipcode": "20190",
    "congressional_district": "11"
  }
},
{
  "model": "vendors.location",
  "pk": 233,
  "fields": {
    "address": "4301 N Fairfax Dr Ste 210",
    "city": "Arlington",
    "state": "VA",
    "zipcode": "22203",
    "congressional_district": "08"
  }
},
{
  "model": "vendors.location",
  "pk": 234,
  "fields": {
    "address": "55 Walkers Brook Drive",
    "city": "Reading",
    "state": "VA",
    "zipcode": "01867",
    "congressional_district": "06"
  }
},
{
  "model": "vendors.location",
  "pk": 235,
  "fields": {
    "address": "100 Brickstone Square",
    "city": "Andover",
    "state": "MA",
    "zipcode": "01810",
    "congressional_district": "05"
  }
},
{
  "model": "vendors.location",
  "pk": 236,
  "fields": {
    "address": "4801 Stonecroft Blvd",
    "city": "Chantilly",
    "state": "VA",
    "zipcode": "20151",
    "congressional_district": "10"
  }
},
{
  "model": "vendors.location",
  "pk": 237,
  "fields": {
    "address": "100 Brickstone Square",
    "city": "Andover",
    "state": "MA",
    "zipcode": "01810",
    "congressional_district": "03"
  }
},
{
  "model": "vendors.location",
  "pk": 238,
  "fields": {
    "address": "55 Walkers Brook Drive",
    "city": "Reading",
    "state": "MA",
    "zipcode": "01867",
    "congressional_district": "06"
  }
},
{
  "model": "vendors.location",
  "pk": 239,
  "fields": {
    "address": "2750 Prosperity Ave Ste 510",
    "city": "Fairfax",
    "state": "VA",
    "zipcode": "22031",
    "congressional_district": "11"
  }
},
{
  "model": "vendors.location",
  "pk": 240,
  "fields": {
    "address": "3211 Jermantown Rd # 700",
    "city": "Fairfax",
    "state": "VA",
    "zipcode": "22030",
    "congressional_district": "11"
  }
},
{
  "model": "vendors.location",
  "pk": 241,
  "fields": {
    "address": "3211 Jermantown Rd, Ste 70",
    "city": "Fairfax",
    "state": "VA",
    "zipcode": "22030",
    "congressional_district": "11"
  }
},
{
  "model": "vendors.location",
  "pk": 242,
  "fields": {
    "address": "333 John Carlyle St Ste 50",
    "city": "Alexandria",
    "state": "VA",
    "zipcode": "22314",
    "congressional_district": "08"
  }
},
{
  "model": "vendors.location",
  "pk": 243,
  "fields": {
    "address": "9300 Lee Highway",
    "city": "Fairfax",
    "state": "VA",
    "zipcode": "22031",
    "congressional_district": "11"
  }
},
{
  "model": "vendors.location",
  "pk": 244,
  "fields": {
    "address": "6710 Rockledge Dr",
    "city": "Bethesda",
    "state": "MD",
    "zipcode": "20817",
    "congressional_district": "08"
  }
},
{
  "model": "vendors.location",
  "pk": 245,
  "fields": {
    "address": "60 Frontage Road",
    "city": "Andover",
    "state": "MA",
    "zipcode": "01810",
    "congressional_district": "05"
  }
},
{
  "model": "vendors.location",
  "pk": 246,
  "fields": {
    "address": "60 Frontage Rd",
    "city": "Andover",
    "state": "MA",
    "zipcode": "01810",
    "congressional_district": "05"
  }
},
{
  "model": "vendors.location",
  "pk": 247,
  "fields": {
    "address": "60 Frontage Rd",
    "city": "Andover",
    "state": "MA",
    "zipcode": "01810",
    "congressional_district": "03"
  }
},
{
  "model": "vendors.location",
  "pk": 248,
  "fields": {
    "address": "Two Technology Dr",
    "city": "Andover",
    "state": "MA",
    "zipcode": "01810",
    "congressional_district": "03"
  }
},
{
  "model": "vendors.location",
  "pk": 249,
  "fields": {
    "address": "1000 Explorer Blvd Nw",
    "city": "Huntsville",
    "state": "AL",
    "zipcode": "35806",
    "congressional_district": "05"
  }
},
{
  "model": "vendors.location",
  "pk": 250,
  "fields": {
    "address": "1000 Explorer Blvd",
    "city": "Huntsville",
    "state": "AL",
    "zipcode": "35806",
    "congressional_district": "05"
  }
},
{
  "model": "vendors.location",
  "pk": 251,
  "fields": {
    "address": "12601 Fair Lakes Circle",
    "city": "Fairfax",
    "state": "VA",
    "zipcode": "22033",
    "congressional_district": "10"
  }
},
{
  "model": "vendors.location",
  "pk": 252,
  "fields": {
    "address": "12601 Fair Lakes Circle",
    "city": "Fairfax",
    "state": "VA",
    "zipcode": "22033",
    "congressional_district": "11"
  }
},
{
  "model": "vendors.location",
  "pk": 253,
  "fields": {
    "address": "600 William Northern Blvd",
    "city": "Tullahoma",
    "state": "TN",
    "zipcode": "37388",
    "congressional_district": "04"
  }
},
{
  "model": "vendors.location",
  "pk": 254,
  "fields": {
    "address": "13990 Parkeast Cir",
    "city": "Chantilly",
    "state": "VA",
    "zipcode": "20151",
    "congressional_district": "10"
  }
},
{
  "model": "vendors.location",
  "pk": 255,
  "fields": {
    "address": "14151 Park Meadow Dr",
    "city": "Chantilly",
    "state": "VA",
    "zipcode": "20151",
    "congressional_district": "10"
  }
},
{
  "model": "vendors.location",
  "pk": 256,
  "fields": {
    "address": "14151 Park Meadow Drive",
    "city": "Chantilly",
    "state": "VA",
    "zipcode": "20151",
    "congressional_district": "10"
  }
},
{
  "model": "vendors.location",
  "pk": 257,
  "fields": {
    "address": "635 Discovery Dr",
    "city": "Huntsville",
    "state": "AL",
    "zipcode": "35806",
    "congressional_district": "05"
  }
},
{
  "model": "vendors.location",
  "pk": 258,
  "fields": {
    "address": "635 Discovery Dr Nw",
    "city": "Huntsville",
    "state": "AL",
    "zipcode": "35806",
    "congressional_district": "05"
  }
},
{
  "model": "vendors.location",
  "pk": 259,
  "fields": {
    "address": "7000 Columbia Gateway Dr",
    "city": "Columbia",
    "state": "MD",
    "zipcode": "21046",
    "congressional_district": "03"
  }
},
{
  "model": "vendors.location",
  "pk": 260,
  "fields": {
    "address": "1616 Anderson Road, Suite 215",
    "city": "Mc Lean",
    "state": "VA",
    "zipcode": "22102",
    "congressional_district": "08"
  }
},
{
  "model": "vendors.location",
  "pk": 261,
  "fields": {
    "address": "1616 Anderson Rd Ste 229",
    "city": "Mc Lean",
    "state": "VA",
    "zipcode": "22102",
    "congressional_district": "08"
  }
},
{
  "model": "vendors.location",
  "pk": 262,
  "fields": {
    "address": "1616 Anderson Rd Ste 228",
    "city": "Mc Lean",
    "state": "VA",
    "zipcode": "22102",
    "congressional_district": "08"
  }
},
{
  "model": "vendors.location",
  "pk": 263,
  "fields": {
    "address": "1616 Anderson Rd Ste 227",
    "city": "Mc Lean",
    "state": "VA",
    "zipcode": "22102",
    "congressional_district": "08"
  }
},
{
  "model": "vendors.location",
  "pk": 264,
  "fields": {
    "address": "805 15Th St Nw Ste 910",
    "city": "Washington",
    "state": "DC",
    "zipcode": "20005",
    "congressional_district": "00"
  }
},
{
  "model": "vendors.location",
  "pk": 265,
  "fields": {
    "address": "3240 Prospect St Nw Ste 100",
    "city": "Washington",
    "state": "DC",
    "zipcode": "20007",
    "congressional_district": "00"
  }
},
{
  "model": "vendors.location",
  "pk": 266,
  "fields": {
    "address": "4511 Knox Rd, Ste. 110",
    "city": "College Park",
    "state": "MD",
    "zipcode": "20740",
    "congressional_district": "05"
  }
},
{
  "model": "vendors.location",
  "pk": 267,
  "fields": {
    "address": "800 W Broad St Ste 408",
    "city": "Falls Church",
    "state": "VA",
    "zipcode": "22046",
    "congressional_district": "08"
  }
},
{
  "model": "vendors.location",
  "pk": 268,
  "fields": {
    "address": "1660 Duke St., Ste 201",
    "city": "Alexandria",
    "state": "VA",
    "zipcode": "22314",
    "congressional_district": "08"
  }
},
{
  "model": "vendors.location",
  "pk": 269,
  "fields": {
    "address": "1892 Preston White Drive, Suite 300",
    "city": "Reston",
    "state": "VA",
    "zipcode": "20191",
    "congressional_district": "08"
  }
},
{
  "model": "vendors.location",
  "pk": 270,
  "fields": {
    "address": "1892 Preston White Drive, Suite 300",
    "city": "Reston",
    "state": "VA",
    "zipcode": "20191",
    "congressional_district": "11"
  }
},
{
  "model": "vendors.location",
  "pk": 271,
  "fields": {
    "address": "1892 Preston White Dr #300",
    "city": "Reston",
    "state": "VA",
    "zipcode": "20191",
    "congressional_district": "08"
  }
},
{
  "model": "vendors.location",
  "pk": 272,
  "fields": {
    "address": "1892 Preston White Dr #300",
    "city": "Reston",
    "state": "VA",
    "zipcode": "20191",
    "congressional_district": "11"
  }
},
{
  "model": "vendors.location",
  "pk": 273,
  "fields": {
    "address": "9902 Deerfield Pond Ln",
    "city": "Great Falls",
    "state": "VA",
    "zipcode": "22066",
    "congressional_district": "10"
  }
},
{
  "model": "vendors.location",
  "pk": 274,
  "fields": {
    "address": "2696 Linda Marie Dr",
    "city": "Oakton",
    "state": "VA",
    "zipcode": "22124",
    "congressional_district": "11"
  }
},
{
  "model": "vendors.location",
  "pk": 275,
  "fields": {
    "address": "8201 Corporate Dr Ste 580",
    "city": "Hyattsville",
    "state": "MD",
    "zipcode": "20785",
    "congressional_district": "04"
  }
},
{
  "model": "vendors.location",
  "pk": 276,
  "fields": {
    "address": "8201 Corporate Drive",
    "city": "Landover",
    "state": "MD",
    "zipcode": "20785",
    "congressional_district": "04"
  }
},
{
  "model": "vendors.location",
  "pk": 277,
  "fields": {
    "address": "208 Hay St Ste 2 C",
    "city": "Fayetteville",
    "state": "NC",
    "zipcode": "28301",
    "congressional_district": "04"
  }
},
{
  "model": "vendors.location",
  "pk": 278,
  "fields": {
    "address": "3318 Lorcom Ln",
    "city": "Arlington",
    "state": "VA",
    "zipcode": "22207",
    "congressional_district": "08"
  }
},
{
  "model": "vendors.location",
  "pk": 279,
  "fields": {
    "address": "3318 Lorcom Lane",
    "city": "Arlington",
    "state": "VA",
    "zipcode": "22207",
    "congressional_district": "08"
  }
},
{
  "model": "vendors.location",
  "pk": 280,
  "fields": {
    "address": "819 7Th Street Nw 5Th Floor",
    "city": "Washington",
    "state": "DC",
    "zipcode": "20001",
    "congressional_district": "00"
  }
},
{
  "model": "vendors.location",
  "pk": 281,
  "fields": {
    "address": "718 7Th St Nw Ste 302",
    "city": "Washington",
    "state": "DC",
    "zipcode": "20001",
    "congressional_district": "00"
  }
},
{
  "model": "vendors.location",
  "pk": 282,
  "fields": {
    "address": "1714 N Street",
    "city": "Washington",
    "state": "DC",
    "zipcode": "20036",
    "congressional_district": "00"
  }
},
{
  "model": "vendors.location",
  "pk": 283,
  "fields": {
    "address": "1600 Wilson Blvd Ste 1400",
    "city": "Arlington",
    "state": "VA",
    "zipcode": "22209",
    "congressional_district": "08"
  }
},
{
  "model": "vendors.location",
  "pk": 284,
  "fields": {
    "address": "2300 9Th St S Ste 300B",
    "city": "Arlington",
    "state": "VA",
    "zipcode": "22204",
    "congressional_district": "08"
  }
},
{
  "model": "vendors.location",
  "pk": 285,
  "fields": {
    "address": "1600 Wilson Blvd # 720",
    "city": "Arlington",
    "state": "VA",
    "zipcode": "22209",
    "congressional_district": "08"
  }
},
{
  "model": "vendors.location",
  "pk": 286,
  "fields": {
    "address": "600 S Frederick Ave Ste 403",
    "city": "Gaithersburg",
    "state": "MD",
    "zipcode": "20877",
    "congressional_district": "06"
  }
},
{
  "model": "vendors.location",
  "pk": 287,
  "fields": {
    "address": "6210 Wedgewood Rd",
    "city": "Bethesda",
    "state": "MD",
    "zipcode": "20817",
    "congressional_district": "08"
  }
},
{
  "model": "vendors.location",
  "pk": 288,
  "fields": {
    "address": "600 S. Frederick Avenue, Suite 403",
    "city": "Gaithersburg",
    "state": "MD",
    "zipcode": "20877",
    "congressional_district": "08"
  }
},
{
  "model": "vendors.location",
  "pk": 289,
  "fields": {
    "address": "11900 Parklawn Dr. Suite 406",
    "city": "Rockville",
    "state": "MD",
    "zipcode": "20852",
    "congressional_district": "08"
  }
},
{
  "model": "vendors.location",
  "pk": 290,
  "fields": {
    "address": "1921 Gallows Rd Ste 120",
    "city": "Vienna",
    "state": "VA",
    "zipcode": "22182",
    "congressional_district": "11"
  }
},
{
  "model": "vendors.location",
  "pk": 291,
  "fields": {
    "address": "22446 Davis Dr Ste 127",
    "city": "Sterling",
    "state": "VA",
    "zipcode": "20164",
    "congressional_district": "10"
  }
},
{
  "model": "vendors.location",
  "pk": 292,
  "fields": {
    "address": "1921 Gallows Road",
    "city": "Vienna",
    "state": "VA",
    "zipcode": "22182",
    "congressional_district": "08"
  }
},
{
  "model": "vendors.location",
  "pk": 293,
  "fields": {
    "address": "1921 Gallows Rd Ste 840",
    "city": "Vienna",
    "state": "VA",
    "zipcode": "22182",
    "congressional_district": "08"
  }
},
{
  "model": "vendors.location",
  "pk": 294,
  "fields": {
    "address": "7700 Leesburg Pike",
    "city": "Falls Church",
    "state": "VA",
    "zipcode": "22043",
    "congressional_district": "08"
  }
},
{
  "model": "vendors.location",
  "pk": 295,
  "fields": {
    "address": "6354 Walker Lane",
    "city": "Alexandria",
    "state": "VA",
    "zipcode": "22310",
    "congressional_district": "08"
  }
},
{
  "model": "vendors.location",
  "pk": 296,
  "fields": {
    "address": "6354 Walker Ln Ste 300",
    "city": "Alexandria",
    "state": "VA",
    "zipcode": "22310",
    "congressional_district": "08"
  }
},
{
  "model": "vendors.location",
  "pk": 297,
  "fields": {
    "address": "12600 Challenger Pkwy Ste 200",
    "city": "Orlando",
    "state": "FL",
    "zipcode": "32826",
    "congressional_district": "24"
  }
},
{
  "model": "vendors.location",
  "pk": 298,
  "fields": {
    "address": "12600 Challenger Pkwy Ste 100",
    "city": "Orlando",
    "state": "FL",
    "zipcode": "32826",
    "congressional_district": "24"
  }
},
{
  "model": "vendors.location",
  "pk": 299,
  "fields": {
    "address": "12600 Challenger Pkwy Ste 100",
    "city": "Orlando",
    "state": "FL",
    "zipcode": "32826",
    "congressional_district": "07"
  }
},
{
  "model": "vendors.location",
  "pk": 300,
  "fields": {
    "address": "12600 Challenger Pkwy Ste 200",
    "city": "Orlando",
    "state": "FL",
    "zipcode": "32826",
    "congressional_district": "07"
  }
},
{
  "model": "vendors.location",
  "pk": 301,
  "fields": {
    "address": "3203 Lawton Rd., Ste 251",
    "city": "Orlando",
    "state": "FL",
    "zipcode": "32803",
    "congressional_district": "08"
  }
},
{
  "model": "vendors.location",
  "pk": 302,
  "fields": {
    "address": "3203 Lawton Rd Ste 251",
    "city": "Orlando",
    "state": "FL",
    "zipcode": "32803",
    "congressional_district": "08"
  }
},
{
  "model": "vendors.location",
  "pk": 303,
  "fields": {
    "address": "100 N Pitt St 401",
    "city": "Alexandria",
    "state": "VA",
    "zipcode": "22314",
    "congressional_district": "08"
  }
},
{
  "model": "vendors.location",
  "pk": 304,
  "fields": {
    "address": "100 N Pitt St Ste 401",
    "city": "Alexandria",
    "state": "VA",
    "zipcode": "22314",
    "congressional_district": "08"
  }
},
{
  "model": "vendors.location",
  "pk": 305,
  "fields": {
    "address": "1000 Thomas Jefferson St N W",
    "city": "Washington",
    "state": "DC",
    "zipcode": "20007",
    "congressional_district": "00"
  }
},
{
  "model": "vendors.location",
  "pk": 306,
  "fields": {
    "address": "1000 Thomas Jefferson St",
    "city": "Washington",
    "state": "DC",
    "zipcode": "20007",
    "congressional_district": "00"
  }
},
{
  "model": "vendors.location",
  "pk": 307,
  "fields": {
    "address": "1000 Thomas Jefferson Street, Nw, 4",
    "city": "Washington",
    "state": "DC",
    "zipcode": "20007",
    "congressional_district": "00"
  }
},
{
  "model": "vendors.location",
  "pk": 308,
  "fields": {
    "address": "13401 Yorba Ave",
    "city": "Chino",
    "state": "CA",
    "zipcode": "91710",
    "congressional_district": "42"
  }
},
{
  "model": "vendors.location",
  "pk": 309,
  "fields": {
    "address": "10643 Mills  Ave",
    "city": "Montclair",
    "state": "CA",
    "zipcode": "91763",
    "congressional_district": "26"
  }
},
{
  "model": "vendors.location",
  "pk": 310,
  "fields": {
    "address": "10643 Mills Ave",
    "city": "Montclair",
    "state": "CA",
    "zipcode": "91763",
    "congressional_district": "26"
  }
},
{
  "model": "vendors.location",
  "pk": 311,
  "fields": {
    "address": "13401 Yorba Avenue",
    "city": "Chino",
    "state": "CA",
    "zipcode": "91710",
    "congressional_district": "42"
  }
},
{
  "model": "vendors.location",
  "pk": 312,
  "fields": {
    "address": "1530 S Sw Loop 323 # 106",
    "city": "Tyler",
    "state": "TX",
    "zipcode": "75701",
    "congressional_district": "01"
  }
},
{
  "model": "vendors.location",
  "pk": 313,
  "fields": {
    "address": "6802 Industrial Dr Ste 204",
    "city": "Beltsville",
    "state": "MD",
    "zipcode": "20705",
    "congressional_district": "05"
  }
},
{
  "model": "vendors.location",
  "pk": 314,
  "fields": {
    "address": "12501 Prosperity Dr Ste 235",
    "city": "Silver Spring",
    "state": "MD",
    "zipcode": "20904",
    "congressional_district": "03"
  }
},
{
  "model": "vendors.location",
  "pk": 315,
  "fields": {
    "address": "5710 W Hausman Road Suite 105",
    "city": "San Antonio",
    "state": "TX",
    "zipcode": "78249",
    "congressional_district": "20"
  }
},
{
  "model": "vendors.location",
  "pk": 316,
  "fields": {
    "address": "4324 Evergreen Ln Ste B",
    "city": "Annandale",
    "state": "VA",
    "zipcode": "22003",
    "congressional_district": "11"
  }
},
{
  "model": "vendors.location",
  "pk": 317,
  "fields": {
    "address": "4324-B Evergreen Lane",
    "city": "Annandale",
    "state": "VA",
    "zipcode": "22003",
    "congressional_district": "11"
  }
},
{
  "model": "vendors.location",
  "pk": 318,
  "fields": {
    "address": "5285 Shawnee Rd Ste 401",
    "city": "Alexandria",
    "state": "VA",
    "zipcode": "22312",
    "congressional_district": "08"
  }
},
{
  "model": "vendors.location",
  "pk": 319,
  "fields": {
    "address": "110 Broadway St Ste 560",
    "city": "San Antonio",
    "state": "TX",
    "zipcode": "78205",
    "congressional_district": "20"
  }
},
{
  "model": "vendors.location",
  "pk": 320,
  "fields": {
    "address": "110 Broadway,  Suite 560",
    "city": "San Antonio",
    "state": "TX",
    "zipcode": "78205",
    "congressional_district": "20"
  }
},
{
  "model": "vendors.location",
  "pk": 321,
  "fields": {
    "address": "110 Broadway St Ste 690",
    "city": "San Antonio",
    "state": "TX",
    "zipcode": "78205",
    "congressional_district": "35"
  }
},
{
  "model": "vendors.location",
  "pk": 322,
  "fields": {
    "address": "110 Broadway St Ste 690",
    "city": "San Antonio",
    "state": "TX",
    "zipcode": "78205",
    "congressional_district": "20"
  }
},
{
  "model": "vendors.location",
  "pk": 323,
  "fields": {
    "address": "11491 Sunset Hills Rd Ste 325",
    "city": "Reston",
    "state": "VA",
    "zipcode": "20190",
    "congressional_district": "08"
  }
},
{
  "model": "vendors.location",
  "pk": 324,
  "fields": {
    "address": "455 Springpark Pl Ste 200B",
    "city": "Herndon",
    "state": "VA",
    "zipcode": "20170",
    "congressional_district": "11"
  }
},
{
  "model": "vendors.location",
  "pk": 325,
  "fields": {
    "address": "455 Springpark Pl Ste 200B",
    "city": "Herndon",
    "state": "VA",
    "zipcode": "20170",
    "congressional_district": "10"
  }
},
{
  "model": "vendors.location",
  "pk": 326,
  "fields": {
    "address": "11491 Sunset Hills Rd Ste 325",
    "city": "Reston",
    "state": "VA",
    "zipcode": "20190",
    "congressional_district": "11"
  }
},
{
  "model": "vendors.location",
  "pk": 327,
  "fields": {
    "address": "14510 Sw 284Th St",
    "city": "Homestead",
    "state": "FL",
    "zipcode": "33033",
    "congressional_district": "27"
  }
},
{
  "model": "vendors.location",
  "pk": 328,
  "fields": {
    "address": "7208 Lockport Place",
    "city": "Lorton",
    "state": "VA",
    "zipcode": "22079",
    "congressional_district": "11"
  }
},
{
  "model": "vendors.location",
  "pk": 329,
  "fields": {
    "address": "7075 Newington Rd Ste J",
    "city": "Lorton",
    "state": "VA",
    "zipcode": "22079",
    "congressional_district": "08"
  }
},
{
  "model": "vendors.location",
  "pk": 330,
  "fields": {
    "address": "5445 Village Drive",
    "city": "Viera",
    "state": "FL",
    "zipcode": "32955",
    "congressional_district": "15"
  }
},
{
  "model": "vendors.location",
  "pk": 331,
  "fields": {
    "address": "315 Page Rd Box 7 Fl 2 Bldg 2",
    "city": "Pinehurst",
    "state": "NC",
    "zipcode": "28374",
    "congressional_district": "02"
  }
},
{
  "model": "vendors.location",
  "pk": 332,
  "fields": {
    "address": "315 Page Rd Fl 2 Bldg 2",
    "city": "Pinehurst",
    "state": "NC",
    "zipcode": "28374",
    "congressional_district": "06"
  }
},
{
  "model": "vendors.location",
  "pk": 333,
  "fields": {
    "address": "5445 Village Dr, Ste 103",
    "city": "Rockledge",
    "state": "FL",
    "zipcode": "32955",
    "congressional_district": "15"
  }
},
{
  "model": "vendors.location",
  "pk": 334,
  "fields": {
    "address": "5445 Village Dr Ste 103",
    "city": "Rockledge",
    "state": "FL",
    "zipcode": "32955",
    "congressional_district": "15"
  }
},
{
  "model": "vendors.location",
  "pk": 335,
  "fields": {
    "address": "120 Hammond Dr Ne",
    "city": "Atlanta",
    "state": "GA",
    "zipcode": "30328",
    "congressional_district": "06"
  }
},
{
  "model": "vendors.location",
  "pk": 336,
  "fields": {
    "address": "2695 Buford Hwy Ne",
    "city": "Atlanta",
    "state": "GA",
    "zipcode": "30324",
    "congressional_district": "05"
  }
},
{
  "model": "vendors.location",
  "pk": 337,
  "fields": {
    "address": "120 Hammond Drive",
    "city": "Atlanta",
    "state": "GA",
    "zipcode": "30328",
    "congressional_district": "06"
  }
},
{
  "model": "vendors.location",
  "pk": 338,
  "fields": {
    "address": "100 West Broadway",
    "city": "Long Beach",
    "state": "CA",
    "zipcode": "90802",
    "congressional_district": "37"
  }
},
{
  "model": "vendors.location",
  "pk": 339,
  "fields": {
    "address": "300 Oceangate",
    "city": "Long Beach",
    "state": "CA",
    "zipcode": "90802",
    "congressional_district": "37"
  }
},
{
  "model": "vendors.location",
  "pk": 340,
  "fields": {
    "address": "515 S Flower St Fl 4",
    "city": "Los Angeles",
    "state": "CA",
    "zipcode": "90071",
    "congressional_district": "34"
  }
},
{
  "model": "vendors.location",
  "pk": 341,
  "fields": {
    "address": "300 Oceangate, Ste 700",
    "city": "Long Beach",
    "state": "CA",
    "zipcode": "90802",
    "congressional_district": "46"
  }
},
{
  "model": "vendors.location",
  "pk": 342,
  "fields": {
    "address": "560 Herndon Pkwy Ste 200",
    "city": "Herndon",
    "state": "VA",
    "zipcode": "20170",
    "congressional_district": "10"
  }
},
{
  "model": "vendors.location",
  "pk": 343,
  "fields": {
    "address": "1055 Thomas Jefferson St Nw Ste 600",
    "city": "Washington",
    "state": "DC",
    "zipcode": "20007",
    "congressional_district": "00"
  }
},
{
  "model": "vendors.location",
  "pk": 344,
  "fields": {
    "address": "750 9Th St Nw Ste 900",
    "city": "Washington",
    "state": "DC",
    "zipcode": "20001",
    "congressional_district": "00"
  }
},
{
  "model": "vendors.location",
  "pk": 345,
  "fields": {
    "address": "1055 Thomas Jefferson St",
    "city": "Washington",
    "state": "DC",
    "zipcode": "20007",
    "congressional_district": "00"
  }
},
{
  "model": "vendors.location",
  "pk": 346,
  "fields": {
    "address": "2101 Wisconsin Ave Nw",
    "city": "Washington",
    "state": "DC",
    "zipcode": "20007",
    "congressional_district": "00"
  }
},
{
  "model": "vendors.location",
  "pk": 347,
  "fields": {
    "address": "5151 Wisconsin Ave Nw Ste 400",
    "city": "Washington",
    "state": "DC",
    "zipcode": "20016",
    "congressional_district": "00"
  }
},
{
  "model": "vendors.location",
  "pk": 348,
  "fields": {
    "address": "318 Seaboard Lane",
    "city": "Franklin",
    "state": "TN",
    "zipcode": "37067",
    "congressional_district": "07"
  }
},
{
  "model": "vendors.location",
  "pk": 349,
  "fields": {
    "address": "3755 S Capital Of Texas Hwy Ste 355",
    "city": "Austin",
    "state": "TX",
    "zipcode": "78704",
    "congressional_district": "25"
  }
},
{
  "model": "vendors.location",
  "pk": 350,
  "fields": {
    "address": "3755 S  Capital Of Texas H",
    "city": "Austin",
    "state": "TX",
    "zipcode": "78704",
    "congressional_district": "21"
  }
},
{
  "model": "vendors.location",
  "pk": 351,
  "fields": {
    "address": "9891 Brokenland Pkwy",
    "city": "Columbia",
    "state": "MD",
    "zipcode": "21046",
    "congressional_district": "03"
  }
},
{
  "model": "vendors.location",
  "pk": 352,
  "fields": {
    "address": "9891 Broken Land Parkway,",
    "city": "Columbia",
    "state": "MD",
    "zipcode": "21046",
    "congressional_district": "03"
  }
},
{
  "model": "vendors.location",
  "pk": 353,
  "fields": {
    "address": "22461 Shaw Rd",
    "city": "Dulles",
    "state": "VA",
    "zipcode": "20166",
    "congressional_district": "10"
  }
},
{
  "model": "vendors.location",
  "pk": 354,
  "fields": {
    "address": "22980 Indian Creek Dr Ste 100",
    "city": "Sterling",
    "state": "VA",
    "zipcode": "20166",
    "congressional_district": "10"
  }
},
{
  "model": "vendors.location",
  "pk": 355,
  "fields": {
    "address": "22461 Shaw Road",
    "city": "Dulles",
    "state": "VA",
    "zipcode": "20166",
    "congressional_district": "10"
  }
},
{
  "model": "vendors.location",
  "pk": 356,
  "fields": {
    "address": "2220 Central Ave",
    "city": "Saint Petersburg",
    "state": "FL",
    "zipcode": "33712",
    "congressional_district": "11"
  }
},
{
  "model": "vendors.location",
  "pk": 357,
  "fields": {
    "address": "2220 Central Avenue",
    "city": "Saint Petersbu",
    "state": "FL",
    "zipcode": "33712",
    "congressional_district": "11"
  }
},
{
  "model": "vendors.location",
  "pk": 358,
  "fields": {
    "address": "3999 Ft Campbell Blvd",
    "city": "Hopkinsville",
    "state": "KY",
    "zipcode": "42240",
    "congressional_district": "01"
  }
}
]
